{"type": "FeatureCollection", "features": [ {"type": "Feature", "properties": {"norad_id": 29853, "name": "FENGYUN 1C DEB", "group": "fengyun-1c-debris", "lat": -29.19628797944655, "lon": 126.00150701923765, "alt_km": 1019.2833721194793, "timestamp": "2025-12-26T19:22:39.178579+00:00", "meta": {"OBJECT_NAME": "FENGYUN 1C DEB", "OBJECT_ID": "1999-025EX", "EPOCH": "2025-12-25T21:07:35.099904", "MEAN_MOTION": 13.93843486, "ECCENTRICITY": 0.0161967, "INCLINATION": 98.4583, "RA_OF_ASC_NODE": 120.3829, "ARG_OF_PERICENTER": 186.3305, "MEAN_ANOMALY": 173.5813, "EPHEMERIS_TYPE": 0, "CLASSIFICATION_TYPE": "U", "NORAD_CAT_ID": 29853, "ELEMENT_SET_NO": 999, "REV_AT_EPOCH": 95852, "BSTAR": 0.0011425, "MEAN_MOTION_DOT": 1.641e-05, "MEAN_MOTION_DDOT": 0}, "tle": {"line1": "1 29853U 99025EX  25359.88026736  .00001641  00000+0  11425-2 0  9992", "line2": "2 29853  98.4583 120.3829 0161967 186.3305 173.5813 13.93843486958523"}}, "geometry": {"type": "Point", "coordinates": [126.00150701923765, -29.19628797944655]}}, {"type": "Feature", "properties": {"norad_id": 29854, "name": "FENGYUN 1C DEB", "group": "fengyun-1c-debris", "lat": 51.72081295033188, "lon": 149.74441339405004, "alt_km": 863.6896249360734, "timestamp": "2025-12-26T19:22:39.178589+00:00", "meta": {"OBJECT_NAME": "FENGYUN 1C DEB", "OBJECT_ID": "1999-025EY", "EPOCH": "2025-12-26T10:34:10.092576", "MEAN_MOTION": 13.83352087, "ECCENTRICITY": 0.01468771, "INCLINATION": 98.9276, "RA_OF_ASC_NODE": 160.8851, "ARG_OF_PERICENTER": 13.955, "MEAN_ANOMALY": 10.952, "EPHEMERIS_TYPE": 0, "CLASSIFICATION_TYPE": "U", "NORAD_CAT_ID": 29854, "ELEMENT_SET_NO": 999, "REV_AT_EPOCH": 95533, "BSTAR": 0.00035362431, "MEAN_MOTION_DOT": 3.81e-06, "MEAN_MOTION_DDOT": 0}, "tle": {"line1": "1 29854U 99025EY  25360.44039459  .00000381  00000+0  35362-3 0  9990", "line2": "2 29854  98.9276 160.8851 0146877  13.9550  10.9520 13.83352087955338"}}, "geometry": {"type": "Point", "coordinates": [149.74441339405004, 51.72081295033188]}}, {"type": "Feature", "properties": {"norad_id": 29855, "name": "FENGYUN 1C DEB", "group": "fengyun-1c-debris", "lat": 60.801620102535935, "lon": -73.84734364978948, "alt_km": 804.420569972297, "timestamp": "2025-12-26T19:22:39.178598+00:00", "meta": {"OBJECT_NAME": "FENGYUN 1C DEB", "OBJECT_ID": "1999-025EZ", "EPOCH": "2025-12-25T19:14:35.468160", "MEAN_MOTION": 14.01687202, "ECCENTRICITY": 0.01836463, "INCLINATION": 98.1819, "RA_OF_ASC_NODE": 300.1681, "ARG_OF_PERICENTER": 9.4581, "MEAN_ANOMALY": 19.2627, "EPHEMERIS_TYPE": 0, "CLASSIFICATION_TYPE": "U", "NORAD_CAT_ID": 29855, "ELEMENT_SET_NO": 999, "REV_AT_EPOCH": 95895, "BSTAR": 0.0028629326, "MEAN_MOTION_DOT": 4.996e-05, "MEAN_MOTION_DDOT": 0}, "tle": {"line1": "1 29855U 99025EZ  25359.80179940  .00004996  00000+0  28629-2 0  9992", "line2": "2 29855  98.1819 300.1681 0183646   9.4581  19.2627 14.01687202958955"}}, "geometry": {"type": "Point", "coordinates": [-73.84734364978948, 60.801620102535935]}}, {"type": "Feature", "properties": {"norad_id": 29856, "name": "FENGYUN 1C DEB", "group": "fengyun-1c-debris", "lat": 37.485282627941494, "lon": -78.08976761939397, "alt_km": 798.7330605502575, "timestamp": "2025-12-26T19:22:39.178608+00:00", "meta": {"OBJECT_NAME": "FENGYUN 1C DEB", "OBJECT_ID": "1999-025FA", "EPOCH": "2025-12-25T06:30:39.278880", "MEAN_MOTION": 14.48110711, "ECCENTRICITY": 0.0262022, "INCLINATION": 98.6875, "RA_OF_ASC_NODE": 93.5957, "ARG_OF_PERICENTER": 259.9651, "MEAN_ANOMALY": 161.1541, "EPHEMERIS_TYPE": 0, "CLASSIFICATION_TYPE": "U", "NORAD_CAT_ID": 29856, "ELEMENT_SET_NO": 999, "REV_AT_EPOCH": 96556, "BSTAR": 0.0033858, "MEAN_MOTION_DOT": 0.00019472, "MEAN_MOTION_DDOT": 0}, "tle": {"line1": "1 29856U 99025FA  25359.27128795  .00019472  00000+0  33858-2 0  9991", "line2": "2 29856  98.6875  93.5957 0262022 259.9651 161.1541 14.48110711965562"}}, "geometry": {"type": "Point", "coordinates": [-78.08976761939397, 37.485282627941494]}}, {"type": "Feature", "properties": {"norad_id": 29857, "name": "FENGYUN 1C DEB", "group": "fengyun-1c-debris", "lat": -25.2838151871183, "lon": -177.36369525448504, "alt_km": 870.9803038047339, "timestamp": "2025-12-26T19:22:39.178619+00:00", "meta": {"OBJECT_NAME": "FENGYUN 1C DEB", "OBJECT_ID": "1999-025FB", "EPOCH": "2025-12-24T12:30:00.203616", "MEAN_MOTION": 13.81919497, "ECCENTRICITY": 0.01927413, "INCLINATION": 98.4222, "RA_OF_ASC_NODE": 4.605, "ARG_OF_PERICENTER": 262.1723, "MEAN_ANOMALY": 95.7515, "EPHEMERIS_TYPE": 0, "CLASSIFICATION_TYPE": "U", "NORAD_CAT_ID": 29857, "ELEMENT_SET_NO": 999, "REV_AT_EPOCH": 94938, "BSTAR": 0.0012908448, "MEAN_MOTION_DOT": 1.556e-05, "MEAN_MOTION_DDOT": 0}, "tle": {"line1": "1 29857U 99025FB  25358.52083569  .00001556  00000+0  12908-2 0  9995", "line2": "2 29857  98.4222   4.6050 0192741 262.1723  95.7515 13.81919497949389"}}, "geometry": {"type": "Point", "coordinates": [-177.36369525448504, -25.2838151871183]}}, {"type": "Feature", "properties": {"norad_id": 29858, "name": "FENGYUN 1C DEB", "group": "fengyun-1c-debris", "lat": -76.91425590998911, "lon": -122.2582840452407, "alt_km": 1062.985888834608, "timestamp": "2025-12-26T19:22:39.178629+00:00", "meta": {"OBJECT_NAME": "FENGYUN 1C DEB", "OBJECT_ID": "1999-025FC", "EPOCH": "2025-12-25T12:47:50.080992", "MEAN_MOTION": 13.77815797, "ECCENTRICITY": 0.0197546, "INCLINATION": 99.2127, "RA_OF_ASC_NODE": 100.7873, "ARG_OF_PERICENTER": 30.3089, "MEAN_ANOMALY": 35.444, "EPHEMERIS_TYPE": 0, "CLASSIFICATION_TYPE": "U", "NORAD_CAT_ID": 29858, "ELEMENT_SET_NO": 999, "REV_AT_EPOCH": 94730, "BSTAR": 0.0010093, "MEAN_MOTION_DOT": 1.125e-05, "MEAN_MOTION_DDOT": 0}, "tle": {"line1": "1 29858U 99025FC  25359.53321853  .00001125  00000+0  10093-2 0  9994", "line2": "2 29858  99.2127 100.7873 0197546  30.3089  35.4440 13.77815797947303"}}, "geometry": {"type": "Point", "coordinates": [-122.2582840452407, -76.91425590998911]}}, {"type": "Feature", "properties": {"norad_id": 29859, "name": "FENGYUN 1C DEB", "group": "fengyun-1c-debris", "lat": -10.775264087135561, "lon": -164.64263176099178, "alt_km": 1204.5114214231971, "timestamp": "2025-12-26T19:22:39.178639+00:00", "meta": {"OBJECT_NAME": "FENGYUN 1C DEB", "OBJECT_ID": "1999-025FD", "EPOCH": "2025-12-26T12:26:35.522016", "MEAN_MOTION": 13.74106853, "ECCENTRICITY": 0.02941527, "INCLINATION": 98.3359, "RA_OF_ASC_NODE": 193.5059, "ARG_OF_PERICENTER": 175.6877, "MEAN_ANOMALY": 184.6916, "EPHEMERIS_TYPE": 0, "CLASSIFICATION_TYPE": "U", "NORAD_CAT_ID": 29859, "ELEMENT_SET_NO": 999, "REV_AT_EPOCH": 94169, "BSTAR": 0.0021868172, "MEAN_MOTION_DOT": 2.778e-05, "MEAN_MOTION_DDOT": 0}, "tle": {"line1": "1 29859U 99025FD  25360.51846669  .00002778  00000+0  21868-2 0  9999", "line2": "2 29859  98.3359 193.5059 0294152 175.6877 184.6916 13.74106853941690"}}, "geometry": {"type": "Point", "coordinates": [-164.64263176099178, -10.775264087135561]}}, {"type": "Feature", "properties": {"norad_id": 29860, "name": "FENGYUN 1C DEB", "group": "fengyun-1c-debris", "lat": -51.845302012045984, "lon": 44.557466452111605, "alt_km": 816.5425149217963, "timestamp": "2025-12-26T19:22:39.178650+00:00", "meta": {"OBJECT_NAME": "FENGYUN 1C DEB", "OBJECT_ID": "1999-025FE", "EPOCH": "2025-12-26T02:29:47.433408", "MEAN_MOTION": 13.77598649, "ECCENTRICITY": 0.02215503, "INCLINATION": 98.617, "RA_OF_ASC_NODE": 32.7906, "ARG_OF_PERICENTER": 307.0407, "MEAN_ANOMALY": 113.8463, "EPHEMERIS_TYPE": 0, "CLASSIFICATION_TYPE": "U", "NORAD_CAT_ID": 29860, "ELEMENT_SET_NO": 999, "REV_AT_EPOCH": 94323, "BSTAR": 0.0022482775, "MEAN_MOTION_DOT": 2.648e-05, "MEAN_MOTION_DDOT": 0}, "tle": {"line1": "1 29860U 99025FE  25360.10402122  .00002648  00000+0  22483-2 0  9998", "line2": "2 29860  98.6170  32.7906 0221550 307.0407 113.8463 13.77598649943237"}}, "geometry": {"type": "Point", "coordinates": [44.557466452111605, -51.845302012045984]}}, {"type": "Feature", "properties": {"norad_id": 29865, "name": "FENGYUN 1C DEB", "group": "fengyun-1c-debris", "lat": -42.04872840453267, "lon": -78.67781161780395, "alt_km": 689.1552329801125, "timestamp": "2025-12-26T19:22:39.178660+00:00", "meta": {"OBJECT_NAME": "FENGYUN 1C DEB", "OBJECT_ID": "1999-025FK", "EPOCH": "2025-12-26T12:15:23.997888", "MEAN_MOTION": 14.82741483, "ECCENTRICITY": 0.01167148, "INCLINATION": 98.9208, "RA_OF_ASC_NODE": 272.8468, "ARG_OF_PERICENTER": 98.0233, "MEAN_ANOMALY": 77.4308, "EPHEMERIS_TYPE": 0, "CLASSIFICATION_TYPE": "U", "NORAD_CAT_ID": 29865, "ELEMENT_SET_NO": 999, "REV_AT_EPOCH": 962, "BSTAR": 0.00061374725, "MEAN_MOTION_DOT": 5.516e-05, "MEAN_MOTION_DDOT": 0}, "tle": {"line1": "1 29865U 99025FK  25360.51069442  .00005516  00000+0  61375-3 0  9993", "line2": "2 29865  98.9208 272.8468 0116714  98.0233  77.4308 14.82741483  9628"}}, "geometry": {"type": "Point", "coordinates": [-78.67781161780395, -42.04872840453267]}}, {"type": "Feature", "properties": {"norad_id": 29866, "name": "FENGYUN 1C DEB", "group": "fengyun-1c-debris", "lat": -55.85575815199138, "lon": 154.18455425775733, "alt_km": 628.7823409340926, "timestamp": "2025-12-26T19:22:39.178670+00:00", "meta": {"OBJECT_NAME": "FENGYUN 1C DEB", "OBJECT_ID": "1999-025FL", "EPOCH": "2025-12-26T05:15:33.193152", "MEAN_MOTION": 14.64256452, "ECCENTRICITY": 0.01952181, "INCLINATION": 98.0386, "RA_OF_ASC_NODE": 345.6376, "ARG_OF_PERICENTER": 172.2358, "MEAN_ANOMALY": 203.2871, "EPHEMERIS_TYPE": 0, "CLASSIFICATION_TYPE": "U", "NORAD_CAT_ID": 29866, "ELEMENT_SET_NO": 999, "REV_AT_EPOCH": 524, "BSTAR": 0.00022367756, "MEAN_MOTION_DOT": 1.5e-05, "MEAN_MOTION_DDOT": 0}, "tle": {"line1": "1 29866U 99025FL  25360.21913418  .00001500  00000+0  22368-3 0  9990", "line2": "2 29866  98.0386 345.6376 0195218 172.2358 203.2871 14.64256452  5248"}}, "geometry": {"type": "Point", "coordinates": [154.18455425775733, -55.85575815199138]}}]}